CCSDS_OMM_VERS = 2.0
CREATION_DATE  = 
ORIGINATOR     = 

OBJECT_NAME    = STARLINK-36301
OBJECT_ID      = 2026-037A
CENTER_NAME    = EARTH
REF_FRAME      = TEME
TIME_SYSTEM    = UTC
MEAN_ELEMENT_THEORY = SGP/SGP4

EPOCH          = 2026-03-25T22:00:00.999936
MEAN_MOTION    = 15.50520532
ECCENTRICITY   = .00012517
INCLINATION    = 42.9998
RA_OF_ASC_NODE = 100.3259
ARG_OF_PERICENTER = 265.5722
MEAN_ANOMALY   = 254.1254

EPHEMERIS_TYPE = 0
CLASSIFICATION_TYPE = U
NORAD_CAT_ID   = 67932
ELEMENT_SET_NO = 999
REV_AT_EPOCH   = 572
BSTAR          = .11892265E-2
MEAN_MOTION_DOT = .69904E-3
MEAN_MOTION_DDOT = 0

CCSDS_OMM_VERS = 2.0
CREATION_DATE  = 
ORIGINATOR     = 

OBJECT_NAME    = STARLINK-36852
OBJECT_ID      = 2026-037B
CENTER_NAME    = EARTH
REF_FRAME      = TEME
TIME_SYSTEM    = UTC
MEAN_ELEMENT_THEORY = SGP/SGP4

EPOCH          = 2026-03-25T09:22:18.523488
MEAN_MOTION    = 15.50569938
ECCENTRICITY   = .00021247
INCLINATION    = 42.9987
RA_OF_ASC_NODE = 104.5371
ARG_OF_PERICENTER = 251.5964
MEAN_ANOMALY   = 108.4665

EPHEMERIS_TYPE = 0
CLASSIFICATION_TYPE = U
NORAD_CAT_ID   = 67933
ELEMENT_SET_NO = 999
REV_AT_EPOCH   = 571
BSTAR          = .1107283E-2
MEAN_MOTION_DOT = .65141E-3
MEAN_MOTION_DDOT = 0

CCSDS_OMM_VERS = 2.0
CREATION_DATE  = 
ORIGINATOR     = 

OBJECT_NAME    = STARLINK-36861
OBJECT_ID      = 2026-037C
CENTER_NAME    = EARTH
REF_FRAME      = TEME
TIME_SYSTEM    = UTC
MEAN_ELEMENT_THEORY = SGP/SGP4

EPOCH          = 2026-03-25T22:00:00.999936
MEAN_MOTION    = 15.50512466
ECCENTRICITY   = .00014184
INCLINATION    = 43.0002
RA_OF_ASC_NODE = 100.5764
ARG_OF_PERICENTER = 255.9013
MEAN_ANOMALY   = 162.7171

EPHEMERIS_TYPE = 0
CLASSIFICATION_TYPE = U
NORAD_CAT_ID   = 67934
ELEMENT_SET_NO = 999
REV_AT_EPOCH   = 580
BSTAR          = .12238103E-2
MEAN_MOTION_DOT = .71945E-3
MEAN_MOTION_DDOT = 0

CCSDS_OMM_VERS = 2.0
CREATION_DATE  = 
ORIGINATOR     = 

OBJECT_NAME    = STARLINK-36860
OBJECT_ID      = 2026-037D
CENTER_NAME    = EARTH
REF_FRAME      = TEME
TIME_SYSTEM    = UTC
MEAN_ELEMENT_THEORY = SGP/SGP4

EPOCH          = 2026-03-25T22:00:00.999936
MEAN_MOTION    = 15.50517101
ECCENTRICITY   = .00007617
INCLINATION    = 43.0002
RA_OF_ASC_NODE = 101.0672
ARG_OF_PERICENTER = 264.1052
MEAN_ANOMALY   = 315.7996

EPHEMERIS_TYPE = 0
CLASSIFICATION_TYPE = U
NORAD_CAT_ID   = 67935
ELEMENT_SET_NO = 999
REV_AT_EPOCH   = 580
BSTAR          = .11885553E-2
MEAN_MOTION_DOT = .69855E-3
MEAN_MOTION_DDOT = 0

CCSDS_OMM_VERS = 2.0
CREATION_DATE  = 
ORIGINATOR     = 

OBJECT_NAME    = STARLINK-36848
OBJECT_ID      = 2026-037E
CENTER_NAME    = EARTH
REF_FRAME      = TEME
TIME_SYSTEM    = UTC
MEAN_ELEMENT_THEORY = SGP/SGP4

EPOCH          = 2026-03-25T18:12:57.600864
MEAN_MOTION    = 15.50599513
ECCENTRICITY   = .00006691
INCLINATION    = 43.0002
RA_OF_ASC_NODE = 102.1344
ARG_OF_PERICENTER = 268.6389
MEAN_ANOMALY   = 91.4394

EPHEMERIS_TYPE = 0
CLASSIFICATION_TYPE = U
NORAD_CAT_ID   = 67936
ELEMENT_SET_NO = 999
REV_AT_EPOCH   = 577
BSTAR          = .11841353E-2
MEAN_MOTION_DOT = .69798E-3
MEAN_MOTION_DDOT = 0

CCSDS_OMM_VERS = 2.0
CREATION_DATE  = 
ORIGINATOR     = 

OBJECT_NAME    = STARLINK-36370
OBJECT_ID      = 2026-037F
CENTER_NAME    = EARTH
REF_FRAME      = TEME
TIME_SYSTEM    = UTC
MEAN_ELEMENT_THEORY = SGP/SGP4

EPOCH          = 2026-03-25T22:00:00.999936
MEAN_MOTION    = 15.50517298
ECCENTRICITY   = .0001527
INCLINATION    = 43.0003
RA_OF_ASC_NODE = 100.9982
ARG_OF_PERICENTER = 265.6632
MEAN_ANOMALY   = 342.4787

EPHEMERIS_TYPE = 0
CLASSIFICATION_TYPE = U
NORAD_CAT_ID   = 67937
ELEMENT_SET_NO = 999
REV_AT_EPOCH   = 580
BSTAR          = .12158464E-2
MEAN_MOTION_DOT = .71483E-3
MEAN_MOTION_DDOT = 0

CCSDS_OMM_VERS = 2.0
CREATION_DATE  = 
ORIGINATOR     = 

OBJECT_NAME    = STARLINK-36371
OBJECT_ID      = 2026-037G
CENTER_NAME    = EARTH
REF_FRAME      = TEME
TIME_SYSTEM    = UTC
MEAN_ELEMENT_THEORY = SGP/SGP4

EPOCH          = 2026-03-25T22:00:00.999936
MEAN_MOTION    = 15.50511615
ECCENTRICITY   = .00014087
INCLINATION    = 43.0001
RA_OF_ASC_NODE = 100.7147
ARG_OF_PERICENTER = 263.1773
MEAN_ANOMALY   = 98.8531

EPHEMERIS_TYPE = 0
CLASSIFICATION_TYPE = U
NORAD_CAT_ID   = 67938
ELEMENT_SET_NO = 999
REV_AT_EPOCH   = 580
BSTAR          = .12236129E-2
MEAN_MOTION_DOT = .71931E-3
MEAN_MOTION_DDOT = 0

CCSDS_OMM_VERS = 2.0
CREATION_DATE  = 
ORIGINATOR     = 

OBJECT_NAME    = STARLINK-36246
OBJECT_ID      = 2026-037H
CENTER_NAME    = EARTH
REF_FRAME      = TEME
TIME_SYSTEM    = UTC
MEAN_ELEMENT_THEORY = SGP/SGP4

EPOCH          = 2026-03-25T22:00:00.999936
MEAN_MOTION    = 15.50519143
ECCENTRICITY   = .00013551
INCLINATION    = 43.0000
RA_OF_ASC_NODE = 101.1353
ARG_OF_PERICENTER = 263.4574
MEAN_ANOMALY   = 288.2423

EPHEMERIS_TYPE = 0
CLASSIFICATION_TYPE = U
NORAD_CAT_ID   = 67939
ELEMENT_SET_NO = 999
REV_AT_EPOCH   = 572
BSTAR          = .11644962E-2
MEAN_MOTION_DOT = .68427E-3
MEAN_MOTION_DDOT = 0

CCSDS_OMM_VERS = 2.0
CREATION_DATE  = 
ORIGINATOR     = 

OBJECT_NAME    = STARLINK-36907
OBJECT_ID      = 2026-037J
CENTER_NAME    = EARTH
REF_FRAME      = TEME
TIME_SYSTEM    = UTC
MEAN_ELEMENT_THEORY = SGP/SGP4

EPOCH          = 2026-03-25T22:00:00.999936
MEAN_MOTION    = 15.50521471
ECCENTRICITY   = .00011734
INCLINATION    = 43.0001
RA_OF_ASC_NODE = 100.3421
ARG_OF_PERICENTER = 267.6258
MEAN_ANOMALY   = 244.8710

EPHEMERIS_TYPE = 0
CLASSIFICATION_TYPE = U
NORAD_CAT_ID   = 67940
ELEMENT_SET_NO = 999
REV_AT_EPOCH   = 580
BSTAR          = .11304618E-2
MEAN_MOTION_DOT = .66405E-3
MEAN_MOTION_DDOT = 0

CCSDS_OMM_VERS = 2.0
CREATION_DATE  = 
ORIGINATOR     = 

OBJECT_NAME    = STARLINK-36927
OBJECT_ID      = 2026-037K
CENTER_NAME    = EARTH
REF_FRAME      = TEME
TIME_SYSTEM    = UTC
MEAN_ELEMENT_THEORY = SGP/SGP4

EPOCH          = 2026-03-25T22:00:00.999936
MEAN_MOTION    = 15.50513621
ECCENTRICITY   = .00012938
INCLINATION    = 43.0002
RA_OF_ASC_NODE = 100.5081
ARG_OF_PERICENTER = 250.6794
MEAN_ANOMALY   = 194.4408

EPHEMERIS_TYPE = 0
CLASSIFICATION_TYPE = U
NORAD_CAT_ID   = 67941
ELEMENT_SET_NO = 999
REV_AT_EPOCH   = 580
BSTAR          = .11804076E-2
MEAN_MOTION_DOT = .69361E-3
MEAN_MOTION_DDOT = 0

CCSDS_OMM_VERS = 2.0
CREATION_DATE  = 
ORIGINATOR     = 

OBJECT_NAME    = STARLINK-36914
OBJECT_ID      = 2026-037L
CENTER_NAME    = EARTH
REF_FRAME      = TEME
TIME_SYSTEM    = UTC
MEAN_ELEMENT_THEORY = SGP/SGP4

EPOCH          = 2026-03-25T22:00:00.999936
MEAN_MOTION    = 15.50482736
ECCENTRICITY   = .00020091
INCLINATION    = 42.9999
RA_OF_ASC_NODE = 100.0840
ARG_OF_PERICENTER = 282.9749
MEAN_ANOMALY   = 334.1222

EPHEMERIS_TYPE = 0
CLASSIFICATION_TYPE = U
NORAD_CAT_ID   = 67942
ELEMENT_SET_NO = 999
REV_AT_EPOCH   = 580
BSTAR          = .14793657E-2
MEAN_MOTION_DOT = .87119E-3
MEAN_MOTION_DDOT = 0

CCSDS_OMM_VERS = 2.0
CREATION_DATE  = 
ORIGINATOR     = 

OBJECT_NAME    = STARLINK-36851
OBJECT_ID      = 2026-037M
CENTER_NAME    = EARTH
REF_FRAME      = TEME
TIME_SYSTEM    = UTC
MEAN_ELEMENT_THEORY = SGP/SGP4

EPOCH          = 2026-03-25T22:00:00.999936
MEAN_MOTION    = 15.50631220
ECCENTRICITY   = .00012793
INCLINATION    = 43.0003
RA_OF_ASC_NODE = 100.4747
ARG_OF_PERICENTER = 291.9502
MEAN_ANOMALY   = 166.9923

EPHEMERIS_TYPE = 0
CLASSIFICATION_TYPE = U
NORAD_CAT_ID   = 67943
ELEMENT_SET_NO = 999
REV_AT_EPOCH   = 580
BSTAR          = -.1321138E-2
MEAN_MOTION_DOT = -.77228E-3
MEAN_MOTION_DDOT = 0

