STARLINK-36301          
1 67932U 26037A   26084.91667824  .00069904  00000+0  11892-2 0  9998
2 67932  42.9998 100.3259 0001251 265.5722 254.1254 15.50520532  5723
STARLINK-36852          
1 67933U 26037B   26084.39049217  .00065141  00000+0  11073-2 0  9991
2 67933  42.9987 104.5371 0002124 251.5964 108.4665 15.50569938  5715
STARLINK-36861          
1 67934U 26037C   26084.91667824  .00071945  00000+0  12238-2 0  9993
2 67934  43.0002 100.5764 0001418 255.9013 162.7171 15.50512466  5805
STARLINK-36860          
1 67935U 26037D   26084.91667824  .00069855  00000+0  11886-2 0  9999
2 67935  43.0002 101.0672 0000761 264.1052 315.7996 15.50517101  5801
STARLINK-36848          
1 67936U 26037E   26084.75900001  .00069798  00000+0  11841-2 0  9996
2 67936  43.0002 102.1344 0000669 268.6389  91.4394 15.50599513  5772
STARLINK-36370          
1 67937U 26037F   26084.91667824  .00071483  00000+0  12158-2 0  9994
2 67937  43.0003 100.9982 0001527 265.6632 342.4787 15.50517298  5809
STARLINK-36371          
1 67938U 26037G   26084.91667824  .00071931  00000+0  12236-2 0  9990
2 67938  43.0001 100.7147 0001408 263.1773  98.8531 15.50511615  5802
STARLINK-36246          
1 67939U 26037H   26084.91667824  .00068427  00000+0  11645-2 0  9990
2 67939  43.0000 101.1353 0001355 263.4574 288.2423 15.50519143  5729
STARLINK-36907          
1 67940U 26037J   26084.91667824  .00066405  00000+0  11305-2 0  9999
2 67940  43.0001 100.3421 0001173 267.6258 244.8710 15.50521471  5805
STARLINK-36927          
1 67941U 26037K   26084.91667824  .00069361  00000+0  11804-2 0  9998
2 67941  43.0002 100.5081 0001293 250.6794 194.4408 15.50513621  5803
STARLINK-36914          
1 67942U 26037L   26084.91667824  .00087119  00000+0  14794-2 0  9991
2 67942  42.9999 100.0840 0002009 282.9749 334.1222 15.50482736  5808
STARLINK-36851          
1 67943U 26037M   26084.91667824 -.00077228  00000+0 -13211-2 0  9997
2 67943  43.0003 100.4747 0001279 291.9502 166.9923 15.50631220  5805
